QZS-1R                  
1 49336U 21096A   24104.86401258 -.00000250  00000+0  00000+0 0  9994
2 49336  35.8138  91.4978 0751894 270.2562 286.7020  1.00281485  9037
